BEIDOU-3 M12-C26
1 43602U 18067A   23123.97445971  .00000017  00000+0  00000+0 0  9990
2 43602  54.2835 219.7563 0006909  18.8707 354.0889  1.86231743 31895
